CCSDS_OMM_VERS = 2.0
CREATION_DATE  = 
ORIGINATOR     = 

OBJECT_NAME    = CZ-2C R/B
OBJECT_ID      = 2022-132E
CENTER_NAME    = EARTH
REF_FRAME      = TEME
TIME_SYSTEM    = UTC
MEAN_ELEMENT_THEORY = SGP/SGP4

EPOCH          = 2025-12-27T23:36:35.679456
MEAN_MOTION    = 15.55773002
ECCENTRICITY   = .00204749
INCLINATION    = 97.2952
RA_OF_ASC_NODE = 358.4840
ARG_OF_PERICENTER = 4.5506
MEAN_ANOMALY   = 355.5931

EPHEMERIS_TYPE = 0
CLASSIFICATION_TYPE = U
NORAD_CAT_ID   = 54039
ELEMENT_SET_NO = 999
REV_AT_EPOCH   = 17920
BSTAR          = .53848058E-3
MEAN_MOTION_DOT = .37496E-3
MEAN_MOTION_DDOT = 0

CCSDS_OMM_VERS = 2.0
CREATION_DATE  = 
ORIGINATOR     = 

OBJECT_NAME    = GSLV R/B
OBJECT_ID      = 2022-138AN
CENTER_NAME    = EARTH
REF_FRAME      = TEME
TIME_SYSTEM    = UTC
MEAN_ELEMENT_THEORY = SGP/SGP4

EPOCH          = 2025-12-27T23:18:32.819616
MEAN_MOTION    = 14.96209672
ECCENTRICITY   = .00237944
INCLINATION    = 87.3823
RA_OF_ASC_NODE = 190.3723
ARG_OF_PERICENTER = 55.7833
MEAN_ANOMALY   = 304.5648

EPHEMERIS_TYPE = 0
CLASSIFICATION_TYPE = U
NORAD_CAT_ID   = 54149
ELEMENT_SET_NO = 999
REV_AT_EPOCH   = 17320
BSTAR          = .26109151E-3
MEAN_MOTION_DOT = .2987E-4
MEAN_MOTION_DDOT = 0

CCSDS_OMM_VERS = 2.0
CREATION_DATE  = 
ORIGINATOR     = 

OBJECT_NAME    = XRISM
OBJECT_ID      = 2023-137A
CENTER_NAME    = EARTH
REF_FRAME      = TEME
TIME_SYSTEM    = UTC
MEAN_ELEMENT_THEORY = SGP/SGP4

EPOCH          = 2025-12-27T18:27:56.274912
MEAN_MOTION    = 15.10499509
ECCENTRICITY   = .00075709
INCLINATION    = 31.0032
RA_OF_ASC_NODE = 28.4967
ARG_OF_PERICENTER = 36.9423
MEAN_ANOMALY   = 323.1735

EPHEMERIS_TYPE = 0
CLASSIFICATION_TYPE = U
NORAD_CAT_ID   = 57800
ELEMENT_SET_NO = 999
REV_AT_EPOCH   = 12690
BSTAR          = .42977803E-3
MEAN_MOTION_DOT = .7356E-4
MEAN_MOTION_DDOT = 0

CCSDS_OMM_VERS = 2.0
CREATION_DATE  = 
ORIGINATOR     = 

OBJECT_NAME    = ACS3
OBJECT_ID      = 2024-077B
CENTER_NAME    = EARTH
REF_FRAME      = TEME
TIME_SYSTEM    = UTC
MEAN_ELEMENT_THEORY = SGP/SGP4

EPOCH          = 2025-12-27T21:58:42.409632
MEAN_MOTION    = 13.86214031
ECCENTRICITY   = .00732575
INCLINATION    = 97.2570
RA_OF_ASC_NODE = 314.1314
ARG_OF_PERICENTER = 300.6710
MEAN_ANOMALY   = 58.7246

EPHEMERIS_TYPE = 0
CLASSIFICATION_TYPE = U
NORAD_CAT_ID   = 59588
ELEMENT_SET_NO = 999
REV_AT_EPOCH   = 8424
BSTAR          = .2482479E-1
MEAN_MOTION_DOT = .29346E-3
MEAN_MOTION_DDOT = 0

CCSDS_OMM_VERS = 2.0
CREATION_DATE  = 
ORIGINATOR     = 

OBJECT_NAME    = SZ-21 MODULE
OBJECT_ID      = 2025-246C
CENTER_NAME    = EARTH
REF_FRAME      = TEME
TIME_SYSTEM    = UTC
MEAN_ELEMENT_THEORY = SGP/SGP4

EPOCH          = 2025-12-27T11:48:49.053024
MEAN_MOTION    = 15.63283022
ECCENTRICITY   = .00040746
INCLINATION    = 41.4763
RA_OF_ASC_NODE = 286.0025
ARG_OF_PERICENTER = 340.5581
MEAN_ANOMALY   = 19.5103

EPHEMERIS_TYPE = 0
CLASSIFICATION_TYPE = U
NORAD_CAT_ID   = 66515
ELEMENT_SET_NO = 999
REV_AT_EPOCH   = 675
BSTAR          = .31547412E-3
MEAN_MOTION_DOT = .29574E-3
MEAN_MOTION_DDOT = 0

